HULIANWANG DIGUI-108    
1 66918U 25285D   26200.25251765 -.00000122  00000+0  44334-5 0  9993
2 66918  50.0060  30.9951 0000951  52.0846 308.0112 13.29326002 30321
HULIANWANG DIGUI-109    
1 66919U 25285E   26200.24407683 -.00000125  00000+0 -21110-5 0  9996
2 66919  50.0087  30.9965 0000902  61.9208 298.1756 13.29316729 30332
HULIANWANG DIGUI-110    
1 66920U 25285F   26200.23585164 -.00000124  00000+0  65075-6 0  9995
2 66920  50.0118  31.0115 0000879  53.4464 306.6490 13.29326535 30326
HULIANWANG DIGUI-111    
1 66921U 25285G   26200.22753559 -.00000127  00000+0 -61196-5 0  9993
2 66921  50.0135  30.9986 0000896  53.5539 306.5416 13.29325997 30321
HULIANWANG DIGUI-112    
1 66922U 25285H   26199.84324237 -.00000123  00000+0  29846-5 0  9997
2 66922  50.0097  32.2380 0000964  48.0326 312.0629 13.29325862 30274
HULIANWANG DIGUI-113    
1 66923U 25285J   26199.98535654 -.00000103  00000+0  46381-4 0  9990
2 66923  50.0106  31.6727 0000937  49.6702 310.4252 13.29324396 30296
HULIANWANG DIGUI-114    
1 66953U 25287A   26200.17424358  .00000032  00000+0  39957-4 0  9998
2 66953  86.4926 271.5587 0002276  96.7368 263.4025 13.24413660 29572
HULIANWANG DIGUI-115    
1 66954U 25287B   26200.24197010  .00000044  00000+0  68428-4 0  9997
2 66954  86.4942 271.5656 0002547  93.8399 266.3027 13.24401130 29585
HULIANWANG DIGUI-116    
1 66955U 25287C   26200.23468886  .00000054  00000+0  91142-4 0  9999
2 66955  86.4881 271.4262 0002352  94.6832 265.4571 13.24413311 29583
HULIANWANG DIGUI-117    
1 66956U 25287D   26200.22716742  .00000059  00000+0  10428-3 0  9998
2 66956  86.4943 271.5599 0000826  70.2617 289.8606 13.24412955 29584
HULIANWANG DIGUI-118    
1 66957U 25287E   26200.21960381  .00000055  00000+0  94038-4 0  9994
2 66957  86.4918 271.5022 0002322  96.4719 263.6680 13.24412377 29584
HULIANWANG DIGUI-119    
1 67059U 25295A   26199.88223785 -.00000089  00000+0  75388-4 0  9992
2 67059  50.0034 272.1083 0001127 205.9776 154.1040 13.29324751 29712
HULIANWANG DIGUI-120    
1 67060U 25295B   26200.24143926 -.00000088  00000+0  77421-4 0  9994
2 67060  50.0038 270.6834 0001164 207.4015 152.6796 13.29324730 29762
HULIANWANG DIGUI-121    
1 67061U 25295C   26200.24978281 -.00000092  00000+0  70002-4 0  9998
2 67061  49.9999 270.6518 0001152 206.0648 154.0167 13.29325992 29768
HULIANWANG DIGUI-122    
1 67062U 25295D   26200.23300730 -.00000087  00000+0  78740-4 0  9997
2 67062  50.0033 270.6297 0001140 205.0593 155.0224 13.29324722 29765
HULIANWANG DIGUI-123    
1 67063U 25295E   26200.22471208 -.00000088  00000+0  78446-4 0  9990
2 67063  50.0035 270.5901 0001060 205.7417 154.3402 13.29324382 29764
