{"fetched_at":"2026-07-19T17:31:36.159Z","source":"https://celestrak.org/NORAD/elements/gp.php?NAME=HULIANWANG&FORMAT=JSON","constellation":"guowang","records":[{"OBJECT_NAME":"HULIANWANG DIGUI-108","OBJECT_ID":"2025-285D","EPOCH":"2026-07-19T06:03:37.524960","CLASSIFICATION_TYPE":"U","MEAN_MOTION":13.29326002,"ECCENTRICITY":0.00009519,"INCLINATION":50.006,"RA_OF_ASC_NODE":30.9951,"ARG_OF_PERICENTER":52.0846,"MEAN_ANOMALY":308.0112,"EPHEMERIS_TYPE":0,"NORAD_CAT_ID":66918,"ELEMENT_SET_NO":999,"REV_AT_EPOCH":3032,"BSTAR":0.000004433439,"MEAN_MOTION_DOT":-0.00000122,"MEAN_MOTION_DDOT":0},{"OBJECT_NAME":"HULIANWANG DIGUI-109","OBJECT_ID":"2025-285E","EPOCH":"2026-07-19T05:51:28.238112","CLASSIFICATION_TYPE":"U","MEAN_MOTION":13.29316729,"ECCENTRICITY":0.00009022,"INCLINATION":50.0087,"RA_OF_ASC_NODE":30.9965,"ARG_OF_PERICENTER":61.9208,"MEAN_ANOMALY":298.1756,"EPHEMERIS_TYPE":0,"NORAD_CAT_ID":66919,"ELEMENT_SET_NO":999,"REV_AT_EPOCH":3033,"BSTAR":-0.000002110964,"MEAN_MOTION_DOT":-0.00000125,"MEAN_MOTION_DDOT":0},{"OBJECT_NAME":"HULIANWANG DIGUI-110","OBJECT_ID":"2025-285F","EPOCH":"2026-07-19T05:39:37.581696","CLASSIFICATION_TYPE":"U","MEAN_MOTION":13.29326535,"ECCENTRICITY":0.00008791,"INCLINATION":50.0118,"RA_OF_ASC_NODE":31.0115,"ARG_OF_PERICENTER":53.4464,"MEAN_ANOMALY":306.649,"EPHEMERIS_TYPE":0,"NORAD_CAT_ID":66920,"ELEMENT_SET_NO":999,"REV_AT_EPOCH":3032,"BSTAR":6.50752e-7,"MEAN_MOTION_DOT":-0.00000124,"MEAN_MOTION_DDOT":0},{"OBJECT_NAME":"HULIANWANG DIGUI-111","OBJECT_ID":"2025-285G","EPOCH":"2026-07-19T05:27:39.074976","CLASSIFICATION_TYPE":"U","MEAN_MOTION":13.29325997,"ECCENTRICITY":0.00008967,"INCLINATION":50.0135,"RA_OF_ASC_NODE":30.9986,"ARG_OF_PERICENTER":53.5539,"MEAN_ANOMALY":306.5416,"EPHEMERIS_TYPE":0,"NORAD_CAT_ID":66921,"ELEMENT_SET_NO":999,"REV_AT_EPOCH":3032,"BSTAR":-0.000006119649,"MEAN_MOTION_DOT":-0.00000127,"MEAN_MOTION_DDOT":0},{"OBJECT_NAME":"HULIANWANG DIGUI-112","OBJECT_ID":"2025-285H","EPOCH":"2026-07-18T20:14:16.140768","CLASSIFICATION_TYPE":"U","MEAN_MOTION":13.29325862,"ECCENTRICITY":0.00009649,"INCLINATION":50.0097,"RA_OF_ASC_NODE":32.238,"ARG_OF_PERICENTER":48.0326,"MEAN_ANOMALY":312.0629,"EPHEMERIS_TYPE":0,"NORAD_CAT_ID":66922,"ELEMENT_SET_NO":999,"REV_AT_EPOCH":3027,"BSTAR":0.000002984634,"MEAN_MOTION_DOT":-0.00000123,"MEAN_MOTION_DDOT":0},{"OBJECT_NAME":"HULIANWANG DIGUI-113","OBJECT_ID":"2025-285J","EPOCH":"2026-07-18T23:38:54.805056","CLASSIFICATION_TYPE":"U","MEAN_MOTION":13.29324396,"ECCENTRICITY":0.00009374,"INCLINATION":50.0106,"RA_OF_ASC_NODE":31.6727,"ARG_OF_PERICENTER":49.6702,"MEAN_ANOMALY":310.4252,"EPHEMERIS_TYPE":0,"NORAD_CAT_ID":66923,"ELEMENT_SET_NO":999,"REV_AT_EPOCH":3029,"BSTAR":0.000046381231,"MEAN_MOTION_DOT":-0.00000103,"MEAN_MOTION_DDOT":0},{"OBJECT_NAME":"HULIANWANG DIGUI-114","OBJECT_ID":"2025-287A","EPOCH":"2026-07-19T04:10:54.645312","CLASSIFICATION_TYPE":"U","MEAN_MOTION":13.2441366,"ECCENTRICITY":0.00022769,"INCLINATION":86.4926,"RA_OF_ASC_NODE":271.5587,"ARG_OF_PERICENTER":96.7368,"MEAN_ANOMALY":263.4025,"EPHEMERIS_TYPE":0,"NORAD_CAT_ID":66953,"ELEMENT_SET_NO":999,"REV_AT_EPOCH":2957,"BSTAR":0.000039956702,"MEAN_MOTION_DOT":3.2e-7,"MEAN_MOTION_DDOT":0},{"OBJECT_NAME":"HULIANWANG DIGUI-115","OBJECT_ID":"2025-287B","EPOCH":"2026-07-19T05:48:26.216640","CLASSIFICATION_TYPE":"U","MEAN_MOTION":13.2440113,"ECCENTRICITY":0.0002547,"INCLINATION":86.4942,"RA_OF_ASC_NODE":271.5656,"ARG_OF_PERICENTER":93.8399,"MEAN_ANOMALY":266.3027,"EPHEMERIS_TYPE":0,"NORAD_CAT_ID":66954,"ELEMENT_SET_NO":999,"REV_AT_EPOCH":2958,"BSTAR":0.000068427777,"MEAN_MOTION_DOT":4.4e-7,"MEAN_MOTION_DDOT":0},{"OBJECT_NAME":"HULIANWANG DIGUI-116","OBJECT_ID":"2025-287C","EPOCH":"2026-07-19T05:37:57.117504","CLASSIFICATION_TYPE":"U","MEAN_MOTION":13.24413311,"ECCENTRICITY":0.00023525,"INCLINATION":86.4881,"RA_OF_ASC_NODE":271.4262,"ARG_OF_PERICENTER":94.6832,"MEAN_ANOMALY":265.4571,"EPHEMERIS_TYPE":0,"NORAD_CAT_ID":66955,"ELEMENT_SET_NO":999,"REV_AT_EPOCH":2958,"BSTAR":0.000091142163,"MEAN_MOTION_DOT":5.4e-7,"MEAN_MOTION_DDOT":0},{"OBJECT_NAME":"HULIANWANG DIGUI-117","OBJECT_ID":"2025-287D","EPOCH":"2026-07-19T05:27:07.265088","CLASSIFICATION_TYPE":"U","MEAN_MOTION":13.24412955,"ECCENTRICITY":0.00008266,"INCLINATION":86.4943,"RA_OF_ASC_NODE":271.5599,"ARG_OF_PERICENTER":70.2617,"MEAN_ANOMALY":289.8606,"EPHEMERIS_TYPE":0,"NORAD_CAT_ID":66956,"ELEMENT_SET_NO":999,"REV_AT_EPOCH":2958,"BSTAR":0.00010427773,"MEAN_MOTION_DOT":5.9e-7,"MEAN_MOTION_DDOT":0},{"OBJECT_NAME":"HULIANWANG DIGUI-118","OBJECT_ID":"2025-287E","EPOCH":"2026-07-19T05:16:13.769184","CLASSIFICATION_TYPE":"U","MEAN_MOTION":13.24412377,"ECCENTRICITY":0.00023229,"INCLINATION":86.4918,"RA_OF_ASC_NODE":271.5022,"ARG_OF_PERICENTER":96.4719,"MEAN_ANOMALY":263.668,"EPHEMERIS_TYPE":0,"NORAD_CAT_ID":66957,"ELEMENT_SET_NO":999,"REV_AT_EPOCH":2958,"BSTAR":0.00009403757,"MEAN_MOTION_DOT":5.5e-7,"MEAN_MOTION_DDOT":0},{"OBJECT_NAME":"HULIANWANG DIGUI-119","OBJECT_ID":"2025-295A","EPOCH":"2026-07-18T21:10:25.350240","CLASSIFICATION_TYPE":"U","MEAN_MOTION":13.29324751,"ECCENTRICITY":0.00011271,"INCLINATION":50.0034,"RA_OF_ASC_NODE":272.1083,"ARG_OF_PERICENTER":205.9776,"MEAN_ANOMALY":154.104,"EPHEMERIS_TYPE":0,"NORAD_CAT_ID":67059,"ELEMENT_SET_NO":999,"REV_AT_EPOCH":2971,"BSTAR":0.00007538811,"MEAN_MOTION_DOT":-8.9e-7,"MEAN_MOTION_DDOT":0},{"OBJECT_NAME":"HULIANWANG DIGUI-120","OBJECT_ID":"2025-295B","EPOCH":"2026-07-19T05:47:40.352064","CLASSIFICATION_TYPE":"U","MEAN_MOTION":13.2932473,"ECCENTRICITY":0.00011646,"INCLINATION":50.0038,"RA_OF_ASC_NODE":270.6834,"ARG_OF_PERICENTER":207.4015,"MEAN_ANOMALY":152.6796,"EPHEMERIS_TYPE":0,"NORAD_CAT_ID":67060,"ELEMENT_SET_NO":999,"REV_AT_EPOCH":2976,"BSTAR":0.000077421052,"MEAN_MOTION_DOT":-8.8e-7,"MEAN_MOTION_DDOT":0},{"OBJECT_NAME":"HULIANWANG DIGUI-121","OBJECT_ID":"2025-295C","EPOCH":"2026-07-19T05:59:41.234784","CLASSIFICATION_TYPE":"U","MEAN_MOTION":13.29325992,"ECCENTRICITY":0.00011523,"INCLINATION":49.9999,"RA_OF_ASC_NODE":270.6518,"ARG_OF_PERICENTER":206.0648,"MEAN_ANOMALY":154.0167,"EPHEMERIS_TYPE":0,"NORAD_CAT_ID":67061,"ELEMENT_SET_NO":999,"REV_AT_EPOCH":2976,"BSTAR":0.000070001527,"MEAN_MOTION_DOT":-9.2e-7,"MEAN_MOTION_DDOT":0},{"OBJECT_NAME":"HULIANWANG DIGUI-122","OBJECT_ID":"2025-295D","EPOCH":"2026-07-19T05:35:31.830720","CLASSIFICATION_TYPE":"U","MEAN_MOTION":13.29324722,"ECCENTRICITY":0.00011406,"INCLINATION":50.0033,"RA_OF_ASC_NODE":270.6297,"ARG_OF_PERICENTER":205.0593,"MEAN_ANOMALY":155.0224,"EPHEMERIS_TYPE":0,"NORAD_CAT_ID":67062,"ELEMENT_SET_NO":999,"REV_AT_EPOCH":2976,"BSTAR":0.00007873972,"MEAN_MOTION_DOT":-8.7e-7,"MEAN_MOTION_DDOT":0},{"OBJECT_NAME":"HULIANWANG DIGUI-123","OBJECT_ID":"2025-295E","EPOCH":"2026-07-19T05:23:35.123712","CLASSIFICATION_TYPE":"U","MEAN_MOTION":13.29324382,"ECCENTRICITY":0.00010608,"INCLINATION":50.0035,"RA_OF_ASC_NODE":270.5901,"ARG_OF_PERICENTER":205.7417,"MEAN_ANOMALY":154.3402,"EPHEMERIS_TYPE":0,"NORAD_CAT_ID":67063,"ELEMENT_SET_NO":999,"REV_AT_EPOCH":2976,"BSTAR":0.000078445987,"MEAN_MOTION_DOT":-8.8e-7,"MEAN_MOTION_DDOT":0}]}
